{
"type": "FeatureCollection",
"name": "iit_ropar_nodes",
"crs": { "type": "name", "properties": { "name": "urn:ogc:def:crs:OGC:1.3:CRS84" } },
"features": [
{ "type": "Feature", "properties": { "osmid": 9513069015, "y": 30.9696363, "x": 76.4740327, "street_count": 4 }, "geometry": { "type": "Point", "coordinates": [ 76.4740327, 30.9696363 ] } },
{ "type": "Feature", "properties": { "osmid": 9513069019, "y": 30.969613, "x": 76.4723047, "street_count": 4 }, "geometry": { "type": "Point", "coordinates": [ 76.4723047, 30.969613 ] } },
{ "type": "Feature", "properties": { "osmid": 9513069037, "y": 30.9692529, "x": 76.4668369, "street_count": 3 }, "geometry": { "type": "Point", "coordinates": [ 76.4668369, 30.9692529 ] } },
{ "type": "Feature", "properties": { "osmid": 9513069040, "y": 30.9692521, "x": 76.4651665, "street_count": 1 }, "geometry": { "type": "Point", "coordinates": [ 76.4651665, 30.9692521 ] } },
{ "type": "Feature", "properties": { "osmid": 9513069041, "y": 30.9695284, "x": 76.4693499, "street_count": 3 }, "geometry": { "type": "Point", "coordinates": [ 76.4693499, 30.9695284 ] } },
{ "type": "Feature", "properties": { "osmid": 9513069043, "y": 30.9681769, "x": 76.4696371, "street_count": 1 }, "geometry": { "type": "Point", "coordinates": [ 76.4696371, 30.9681769 ] } },
{ "type": "Feature", "properties": { "osmid": 9513069047, "y": 30.9673489, "x": 76.47013, "street_count": 3 }, "geometry": { "type": "Point", "coordinates": [ 76.47013, 30.9673489 ] } },
{ "type": "Feature", "properties": { "osmid": 9513069048, "y": 30.9679273, "x": 76.470088, "street_count": 3 }, "geometry": { "type": "Point", "coordinates": [ 76.470088, 30.9679273 ] } },
{ "type": "Feature", "properties": { "osmid": 9513069049, "y": 30.9679677, "x": 76.4715686, "street_count": 3 }, "geometry": { "type": "Point", "coordinates": [ 76.4715686, 30.9679677 ] } },
{ "type": "Feature", "properties": { "osmid": 9513069069, "y": 30.9696801, "x": 76.4774254, "street_count": 3 }, "geometry": { "type": "Point", "coordinates": [ 76.4774254, 30.9696801 ] } },
{ "type": "Feature", "properties": { "osmid": 9513069073, "y": 30.9699308, "x": 76.478493, "street_count": 3 }, "geometry": { "type": "Point", "coordinates": [ 76.478493, 30.9699308 ] } },
{ "type": "Feature", "properties": { "osmid": 9513069075, "y": 30.9702138, "x": 76.4774186, "street_count": 3 }, "geometry": { "type": "Point", "coordinates": [ 76.4774186, 30.9702138 ] } },
{ "type": "Feature", "properties": { "osmid": 9513069076, "y": 30.9702289, "x": 76.4784866, "street_count": 4 }, "geometry": { "type": "Point", "coordinates": [ 76.4784866, 30.9702289 ] } },
{ "type": "Feature", "properties": { "osmid": 9513069077, "y": 30.9705474, "x": 76.4774144, "street_count": 3 }, "geometry": { "type": "Point", "coordinates": [ 76.4774144, 30.9705474 ] } },
{ "type": "Feature", "properties": { "osmid": 9513069078, "y": 30.9705648, "x": 76.4784794, "street_count": 3 }, "geometry": { "type": "Point", "coordinates": [ 76.4784794, 30.9705648 ] } },
{ "type": "Feature", "properties": { "osmid": 9513069079, "y": 30.9708655, "x": 76.4774104, "street_count": 3 }, "geometry": { "type": "Point", "coordinates": [ 76.4774104, 30.9708655 ] } },
{ "type": "Feature", "properties": { "osmid": 9513069080, "y": 30.9708758, "x": 76.4784727, "street_count": 3 }, "geometry": { "type": "Point", "coordinates": [ 76.4784727, 30.9708758 ] } },
{ "type": "Feature", "properties": { "osmid": 9513069084, "y": 30.9699154, "x": 76.4774224, "street_count": 3 }, "geometry": { "type": "Point", "coordinates": [ 76.4774224, 30.9699154 ] } },
{ "type": "Feature", "properties": { "osmid": 9513402242, "y": 30.9690798, "x": 76.4710521, "street_count": 1 }, "geometry": { "type": "Point", "coordinates": [ 76.4710521, 30.9690798 ] } },
{ "type": "Feature", "properties": { "osmid": 9513402251, "y": 30.9688724, "x": 76.4710561, "street_count": 3 }, "geometry": { "type": "Point", "coordinates": [ 76.4710561, 30.9688724 ] } },
{ "type": "Feature", "properties": { "osmid": 9513402252, "y": 30.9684457, "x": 76.4722367, "street_count": 3 }, "geometry": { "type": "Point", "coordinates": [ 76.4722367, 30.9684457 ] } },
{ "type": "Feature", "properties": { "osmid": 9513402256, "y": 30.9689204, "x": 76.4752269, "street_count": 3 }, "geometry": { "type": "Point", "coordinates": [ 76.4752269, 30.9689204 ] } },
{ "type": "Feature", "properties": { "osmid": 9513402263, "y": 30.9692689, "x": 76.4723083, "street_count": 3 }, "geometry": { "type": "Point", "coordinates": [ 76.4723083, 30.9692689 ] } },
{ "type": "Feature", "properties": { "osmid": 9513402264, "y": 30.969251, "x": 76.4702808, "street_count": 1 }, "geometry": { "type": "Point", "coordinates": [ 76.4702808, 30.969251 ] } },
{ "type": "Feature", "properties": { "osmid": 9513402265, "y": 30.9692587, "x": 76.4711475, "street_count": 3 }, "geometry": { "type": "Point", "coordinates": [ 76.4711475, 30.9692587 ] } },
{ "type": "Feature", "properties": { "osmid": 9513402271, "y": 30.9692642, "x": 76.4717773, "street_count": 3 }, "geometry": { "type": "Point", "coordinates": [ 76.4717773, 30.9692642 ] } },
{ "type": "Feature", "properties": { "osmid": 9513402272, "y": 30.9695287, "x": 76.4697235, "street_count": 3 }, "geometry": { "type": "Point", "coordinates": [ 76.4697235, 30.9695287 ] } },
{ "type": "Feature", "properties": { "osmid": 9513402274, "y": 30.9664748, "x": 76.466681, "street_count": 4 }, "geometry": { "type": "Point", "coordinates": [ 76.466681, 30.9664748 ] } },
{ "type": "Feature", "properties": { "osmid": 9513402276, "y": 30.9664953, "x": 76.4707131, "street_count": 3 }, "geometry": { "type": "Point", "coordinates": [ 76.4707131, 30.9664953 ] } },
{ "type": "Feature", "properties": { "osmid": 9513402277, "y": 30.9665238, "x": 76.4721406, "street_count": 3 }, "geometry": { "type": "Point", "coordinates": [ 76.4721406, 30.9665238 ] } },
{ "type": "Feature", "properties": { "osmid": 9513402282, "y": 30.9665838, "x": 76.4759893, "street_count": 3 }, "geometry": { "type": "Point", "coordinates": [ 76.4759893, 30.9665838 ] } },
{ "type": "Feature", "properties": { "osmid": 9513402283, "y": 30.9639342, "x": 76.4760651, "street_count": 3 }, "geometry": { "type": "Point", "coordinates": [ 76.4760651, 30.9639342 ] } },
{ "type": "Feature", "properties": { "osmid": 9513402284, "y": 30.9639701, "x": 76.4762301, "street_count": 3 }, "geometry": { "type": "Point", "coordinates": [ 76.4762301, 30.9639701 ] } },
{ "type": "Feature", "properties": { "osmid": 9513402311, "y": 30.9638994, "x": 76.4703152, "street_count": 3 }, "geometry": { "type": "Point", "coordinates": [ 76.4703152, 30.9638994 ] } },
{ "type": "Feature", "properties": { "osmid": 9513418826, "y": 30.966491, "x": 76.4692566, "street_count": 3 }, "geometry": { "type": "Point", "coordinates": [ 76.4692566, 30.966491 ] } },
{ "type": "Feature", "properties": { "osmid": 9513418829, "y": 30.9664947, "x": 76.4704842, "street_count": 3 }, "geometry": { "type": "Point", "coordinates": [ 76.4704842, 30.9664947 ] } },
{ "type": "Feature", "properties": { "osmid": 9513432146, "y": 30.9675258, "x": 76.4772747, "street_count": 3 }, "geometry": { "type": "Point", "coordinates": [ 76.4772747, 30.9675258 ] } },
{ "type": "Feature", "properties": { "osmid": 9513432147, "y": 30.9666083, "x": 76.4772816, "street_count": 3 }, "geometry": { "type": "Point", "coordinates": [ 76.4772816, 30.9666083 ] } },
{ "type": "Feature", "properties": { "osmid": 9513432148, "y": 30.9683793, "x": 76.4764604, "street_count": 3 }, "geometry": { "type": "Point", "coordinates": [ 76.4764604, 30.9683793 ] } },
{ "type": "Feature", "properties": { "osmid": 9513432149, "y": 30.9683848, "x": 76.4776705, "street_count": 3 }, "geometry": { "type": "Point", "coordinates": [ 76.4776705, 30.9683848 ] } },
{ "type": "Feature", "properties": { "osmid": 9513432150, "y": 30.9686068, "x": 76.4764554, "street_count": 3 }, "geometry": { "type": "Point", "coordinates": [ 76.4764554, 30.9686068 ] } },
{ "type": "Feature", "properties": { "osmid": 9513432151, "y": 30.968625, "x": 76.4776362, "street_count": 3 }, "geometry": { "type": "Point", "coordinates": [ 76.4776362, 30.968625 ] } },
{ "type": "Feature", "properties": { "osmid": 9513432153, "y": 30.9689349, "x": 76.4776542, "street_count": 3 }, "geometry": { "type": "Point", "coordinates": [ 76.4776542, 30.9689349 ] } },
{ "type": "Feature", "properties": { "osmid": 9513432158, "y": 30.967778, "x": 76.4764744, "street_count": 3 }, "geometry": { "type": "Point", "coordinates": [ 76.4764744, 30.967778 ] } },
{ "type": "Feature", "properties": { "osmid": 9513432159, "y": 30.9677939, "x": 76.4778685, "street_count": 3 }, "geometry": { "type": "Point", "coordinates": [ 76.4778685, 30.9677939 ] } },
{ "type": "Feature", "properties": { "osmid": 9513432160, "y": 30.9680852, "x": 76.4764672, "street_count": 3 }, "geometry": { "type": "Point", "coordinates": [ 76.4764672, 30.9680852 ] } },
{ "type": "Feature", "properties": { "osmid": 9513432162, "y": 30.9680976, "x": 76.477769, "street_count": 3 }, "geometry": { "type": "Point", "coordinates": [ 76.477769, 30.9680976 ] } },
{ "type": "Feature", "properties": { "osmid": 9513732525, "y": 30.9671755, "x": 76.4718395, "street_count": 3 }, "geometry": { "type": "Point", "coordinates": [ 76.4718395, 30.9671755 ] } },
{ "type": "Feature", "properties": { "osmid": 9513732530, "y": 30.9682657, "x": 76.4716253, "street_count": 3 }, "geometry": { "type": "Point", "coordinates": [ 76.4716253, 30.9682657 ] } },
{ "type": "Feature", "properties": { "osmid": 9513732531, "y": 30.967378, "x": 76.4718196, "street_count": 3 }, "geometry": { "type": "Point", "coordinates": [ 76.4718196, 30.967378 ] } },
{ "type": "Feature", "properties": { "osmid": 9513732537, "y": 30.9682669, "x": 76.4718102, "street_count": 3 }, "geometry": { "type": "Point", "coordinates": [ 76.4718102, 30.9682669 ] } },
{ "type": "Feature", "properties": { "osmid": 9513732574, "y": 30.971354, "x": 76.4728926, "street_count": 3 }, "geometry": { "type": "Point", "coordinates": [ 76.4728926, 30.971354 ] } },
{ "type": "Feature", "properties": { "osmid": 9513732576, "y": 30.9709731, "x": 76.472937, "street_count": 3 }, "geometry": { "type": "Point", "coordinates": [ 76.472937, 30.9709731 ] } },
{ "type": "Feature", "properties": { "osmid": 9513732584, "y": 30.9709765, "x": 76.4733283, "street_count": 3 }, "geometry": { "type": "Point", "coordinates": [ 76.4733283, 30.9709765 ] } },
{ "type": "Feature", "properties": { "osmid": 9513732585, "y": 30.9713591, "x": 76.4733673, "street_count": 3 }, "geometry": { "type": "Point", "coordinates": [ 76.4733673, 30.9713591 ] } },
{ "type": "Feature", "properties": { "osmid": 9513732586, "y": 30.9696494, "x": 76.4722121, "street_count": 1 }, "geometry": { "type": "Point", "coordinates": [ 76.4722121, 30.9696494 ] } },
{ "type": "Feature", "properties": { "osmid": 9513732606, "y": 30.9711365, "x": 76.4729324, "street_count": 3 }, "geometry": { "type": "Point", "coordinates": [ 76.4729324, 30.9711365 ] } },
{ "type": "Feature", "properties": { "osmid": 9513732607, "y": 30.9712209, "x": 76.4733216, "street_count": 3 }, "geometry": { "type": "Point", "coordinates": [ 76.4733216, 30.9712209 ] } },
{ "type": "Feature", "properties": { "osmid": 9514211682, "y": 30.9689085, "x": 76.4743819, "street_count": 3 }, "geometry": { "type": "Point", "coordinates": [ 76.4743819, 30.9689085 ] } },
{ "type": "Feature", "properties": { "osmid": 9514211686, "y": 30.9692526, "x": 76.4740858, "street_count": 1 }, "geometry": { "type": "Point", "coordinates": [ 76.4740858, 30.9692526 ] } },
{ "type": "Feature", "properties": { "osmid": 9514211706, "y": 30.9654034, "x": 76.4794355, "street_count": 3 }, "geometry": { "type": "Point", "coordinates": [ 76.4794355, 30.9654034 ] } },
{ "type": "Feature", "properties": { "osmid": 9514233025, "y": 30.9690214, "x": 76.4731446, "street_count": 3 }, "geometry": { "type": "Point", "coordinates": [ 76.4731446, 30.9690214 ] } },
{ "type": "Feature", "properties": { "osmid": 9514233026, "y": 30.9684521, "x": 76.4731628, "street_count": 3 }, "geometry": { "type": "Point", "coordinates": [ 76.4731628, 30.9684521 ] } },
{ "type": "Feature", "properties": { "osmid": 9514233027, "y": 30.9688009, "x": 76.4722322, "street_count": 3 }, "geometry": { "type": "Point", "coordinates": [ 76.4722322, 30.9688009 ] } },
{ "type": "Feature", "properties": { "osmid": 9514233028, "y": 30.9688325, "x": 76.4741697, "street_count": 3 }, "geometry": { "type": "Point", "coordinates": [ 76.4741697, 30.9688325 ] } },
{ "type": "Feature", "properties": { "osmid": 9514233029, "y": 30.9688158, "x": 76.4731512, "street_count": 4 }, "geometry": { "type": "Point", "coordinates": [ 76.4731512, 30.9688158 ] } },
{ "type": "Feature", "properties": { "osmid": 9516401595, "y": 30.9694793, "x": 76.4674295, "street_count": 3 }, "geometry": { "type": "Point", "coordinates": [ 76.4674295, 30.9694793 ] } },
{ "type": "Feature", "properties": { "osmid": 10939627765, "y": 30.9666236, "x": 76.4786739, "street_count": 3 }, "geometry": { "type": "Point", "coordinates": [ 76.4786739, 30.9666236 ] } },
{ "type": "Feature", "properties": { "osmid": 10939627766, "y": 30.9682905, "x": 76.4786813, "street_count": 3 }, "geometry": { "type": "Point", "coordinates": [ 76.4786813, 30.9682905 ] } },
{ "type": "Feature", "properties": { "osmid": 11052493591, "y": 30.9692533, "x": 76.4652801, "street_count": 3 }, "geometry": { "type": "Point", "coordinates": [ 76.4652801, 30.9692533 ] } },
{ "type": "Feature", "properties": { "osmid": 11052493596, "y": 30.9681733, "x": 76.4676943, "street_count": 3 }, "geometry": { "type": "Point", "coordinates": [ 76.4676943, 30.9681733 ] } },
{ "type": "Feature", "properties": { "osmid": 11052493597, "y": 30.9690805, "x": 76.4652534, "street_count": 3 }, "geometry": { "type": "Point", "coordinates": [ 76.4652534, 30.9690805 ] } },
{ "type": "Feature", "properties": { "osmid": 11052493599, "y": 30.969177, "x": 76.4668391, "street_count": 3 }, "geometry": { "type": "Point", "coordinates": [ 76.4668391, 30.969177 ] } },
{ "type": "Feature", "properties": { "osmid": 11052493600, "y": 30.9692571, "x": 76.4656374, "street_count": 3 }, "geometry": { "type": "Point", "coordinates": [ 76.4656374, 30.9692571 ] } },
{ "type": "Feature", "properties": { "osmid": 11052493601, "y": 30.9690863, "x": 76.4656349, "street_count": 3 }, "geometry": { "type": "Point", "coordinates": [ 76.4656349, 30.9690863 ] } },
{ "type": "Feature", "properties": { "osmid": 11052493602, "y": 30.9690933, "x": 76.4661599, "street_count": 3 }, "geometry": { "type": "Point", "coordinates": [ 76.4661599, 30.9690933 ] } },
{ "type": "Feature", "properties": { "osmid": 11052493603, "y": 30.9683169, "x": 76.4663215, "street_count": 3 }, "geometry": { "type": "Point", "coordinates": [ 76.4663215, 30.9683169 ] } },
{ "type": "Feature", "properties": { "osmid": 11052493604, "y": 30.96807, "x": 76.4663671, "street_count": 3 }, "geometry": { "type": "Point", "coordinates": [ 76.4663671, 30.96807 ] } },
{ "type": "Feature", "properties": { "osmid": 11052517106, "y": 30.9691, "x": 76.4665305, "street_count": 3 }, "geometry": { "type": "Point", "coordinates": [ 76.4665305, 30.9691 ] } },
{ "type": "Feature", "properties": { "osmid": 11064569384, "y": 30.9681691, "x": 76.4676428, "street_count": 3 }, "geometry": { "type": "Point", "coordinates": [ 76.4676428, 30.9681691 ] } },
{ "type": "Feature", "properties": { "osmid": 11064569385, "y": 30.9688537, "x": 76.4674937, "street_count": 3 }, "geometry": { "type": "Point", "coordinates": [ 76.4674937, 30.9688537 ] } },
{ "type": "Feature", "properties": { "osmid": 11064569386, "y": 30.968859, "x": 76.4677151, "street_count": 3 }, "geometry": { "type": "Point", "coordinates": [ 76.4677151, 30.968859 ] } },
{ "type": "Feature", "properties": { "osmid": 11066077902, "y": 30.9695146, "x": 76.4684381, "street_count": 3 }, "geometry": { "type": "Point", "coordinates": [ 76.4684381, 30.9695146 ] } },
{ "type": "Feature", "properties": { "osmid": 11066077904, "y": 30.9695167, "x": 76.4685779, "street_count": 3 }, "geometry": { "type": "Point", "coordinates": [ 76.4685779, 30.9695167 ] } },
{ "type": "Feature", "properties": { "osmid": 11066138210, "y": 30.968201, "x": 76.4691329, "street_count": 3 }, "geometry": { "type": "Point", "coordinates": [ 76.4691329, 30.968201 ] } },
{ "type": "Feature", "properties": { "osmid": 11752274322, "y": 30.9664338, "x": 76.4653462, "street_count": 1 }, "geometry": { "type": "Point", "coordinates": [ 76.4653462, 30.9664338 ] } },
{ "type": "Feature", "properties": { "osmid": 11752274323, "y": 30.9664407, "x": 76.4655712, "street_count": 3 }, "geometry": { "type": "Point", "coordinates": [ 76.4655712, 30.9664407 ] } },
{ "type": "Feature", "properties": { "osmid": 11752274324, "y": 30.9680626, "x": 76.4655458, "street_count": 3 }, "geometry": { "type": "Point", "coordinates": [ 76.4655458, 30.9680626 ] } },
{ "type": "Feature", "properties": { "osmid": 11752274352, "y": 30.9652222, "x": 76.4760283, "street_count": 3 }, "geometry": { "type": "Point", "coordinates": [ 76.4760283, 30.9652222 ] } },
{ "type": "Feature", "properties": { "osmid": 11752274354, "y": 30.9648458, "x": 76.4785049, "street_count": 3 }, "geometry": { "type": "Point", "coordinates": [ 76.4785049, 30.9648458 ] } },
{ "type": "Feature", "properties": { "osmid": 11752274355, "y": 30.9641273, "x": 76.4767305, "street_count": 3 }, "geometry": { "type": "Point", "coordinates": [ 76.4767305, 30.9641273 ] } },
{ "type": "Feature", "properties": { "osmid": 11752274356, "y": 30.9652328, "x": 76.4767047, "street_count": 3 }, "geometry": { "type": "Point", "coordinates": [ 76.4767047, 30.9652328 ] } },
{ "type": "Feature", "properties": { "osmid": 11752274357, "y": 30.964589, "x": 76.4779543, "street_count": 3 }, "geometry": { "type": "Point", "coordinates": [ 76.4779543, 30.964589 ] } },
{ "type": "Feature", "properties": { "osmid": 11752274358, "y": 30.9652522, "x": 76.4779494, "street_count": 4 }, "geometry": { "type": "Point", "coordinates": [ 76.4779494, 30.9652522 ] } },
{ "type": "Feature", "properties": { "osmid": 11752274359, "y": 30.9648825, "x": 76.476038, "street_count": 3 }, "geometry": { "type": "Point", "coordinates": [ 76.476038, 30.9648825 ] } },
{ "type": "Feature", "properties": { "osmid": 11752274360, "y": 30.9649038, "x": 76.4767124, "street_count": 3 }, "geometry": { "type": "Point", "coordinates": [ 76.4767124, 30.9649038 ] } },
{ "type": "Feature", "properties": { "osmid": 11752274361, "y": 30.964266, "x": 76.4760556, "street_count": 3 }, "geometry": { "type": "Point", "coordinates": [ 76.4760556, 30.964266 ] } },
{ "type": "Feature", "properties": { "osmid": 11752274362, "y": 30.9642743, "x": 76.4767271, "street_count": 3 }, "geometry": { "type": "Point", "coordinates": [ 76.4767271, 30.9642743 ] } },
{ "type": "Feature", "properties": { "osmid": 11752274365, "y": 30.9652871, "x": 76.4812467, "street_count": 3 }, "geometry": { "type": "Point", "coordinates": [ 76.4812467, 30.9652871 ] } },
{ "type": "Feature", "properties": { "osmid": 11752274366, "y": 30.9656809, "x": 76.4760151, "street_count": 3 }, "geometry": { "type": "Point", "coordinates": [ 76.4760151, 30.9656809 ] } },
{ "type": "Feature", "properties": { "osmid": 11752274367, "y": 30.9657267, "x": 76.4779357, "street_count": 3 }, "geometry": { "type": "Point", "coordinates": [ 76.4779357, 30.9657267 ] } },
{ "type": "Feature", "properties": { "osmid": 11752274368, "y": 30.9660097, "x": 76.4760057, "street_count": 3 }, "geometry": { "type": "Point", "coordinates": [ 76.4760057, 30.9660097 ] } },
{ "type": "Feature", "properties": { "osmid": 11752291169, "y": 30.9660398, "x": 76.4779267, "street_count": 3 }, "geometry": { "type": "Point", "coordinates": [ 76.4779267, 30.9660398 ] } },
{ "type": "Feature", "properties": { "osmid": 11752291170, "y": 30.9663265, "x": 76.4759967, "street_count": 3 }, "geometry": { "type": "Point", "coordinates": [ 76.4759967, 30.9663265 ] } },
{ "type": "Feature", "properties": { "osmid": 11752291171, "y": 30.9663681, "x": 76.4789941, "street_count": 3 }, "geometry": { "type": "Point", "coordinates": [ 76.4789941, 30.9663681 ] } },
{ "type": "Feature", "properties": { "osmid": 11752291172, "y": 30.9656975, "x": 76.476709, "street_count": 3 }, "geometry": { "type": "Point", "coordinates": [ 76.476709, 30.9656975 ] } },
{ "type": "Feature", "properties": { "osmid": 11752291173, "y": 30.9665969, "x": 76.4766818, "street_count": 3 }, "geometry": { "type": "Point", "coordinates": [ 76.4766818, 30.9665969 ] } },
{ "type": "Feature", "properties": { "osmid": 11752291174, "y": 30.9660212, "x": 76.4766996, "street_count": 4 }, "geometry": { "type": "Point", "coordinates": [ 76.4766996, 30.9660212 ] } },
{ "type": "Feature", "properties": { "osmid": 11752291175, "y": 30.9663357, "x": 76.4766899, "street_count": 4 }, "geometry": { "type": "Point", "coordinates": [ 76.4766899, 30.9663357 ] } },
{ "type": "Feature", "properties": { "osmid": 11752291176, "y": 30.9666153, "x": 76.4779101, "street_count": 3 }, "geometry": { "type": "Point", "coordinates": [ 76.4779101, 30.9666153 ] } },
{ "type": "Feature", "properties": { "osmid": 11752291177, "y": 30.9663527, "x": 76.4779177, "street_count": 4 }, "geometry": { "type": "Point", "coordinates": [ 76.4779177, 30.9663527 ] } },
{ "type": "Feature", "properties": { "osmid": 11752291178, "y": 30.9659594, "x": 76.477929, "street_count": 3 }, "geometry": { "type": "Point", "coordinates": [ 76.477929, 30.9659594 ] } },
{ "type": "Feature", "properties": { "osmid": 11752291180, "y": 30.9666277, "x": 76.4789875, "street_count": 3 }, "geometry": { "type": "Point", "coordinates": [ 76.4789875, 30.9666277 ] } },
{ "type": "Feature", "properties": { "osmid": 11752291181, "y": 30.9659711, "x": 76.4784557, "street_count": 3 }, "geometry": { "type": "Point", "coordinates": [ 76.4784557, 30.9659711 ] } },
{ "type": "Feature", "properties": { "osmid": 11752291182, "y": 30.9663605, "x": 76.4784561, "street_count": 3 }, "geometry": { "type": "Point", "coordinates": [ 76.4784561, 30.9663605 ] } },
{ "type": "Feature", "properties": { "osmid": 11752291183, "y": 30.9665407, "x": 76.473513, "street_count": 3 }, "geometry": { "type": "Point", "coordinates": [ 76.473513, 30.9665407 ] } },
{ "type": "Feature", "properties": { "osmid": 11752291184, "y": 30.9680634, "x": 76.4735889, "street_count": 3 }, "geometry": { "type": "Point", "coordinates": [ 76.4735889, 30.9680634 ] } },
{ "type": "Feature", "properties": { "osmid": 11752291185, "y": 30.9680465, "x": 76.4727622, "street_count": 1 }, "geometry": { "type": "Point", "coordinates": [ 76.4727622, 30.9680465 ] } },
{ "type": "Feature", "properties": { "osmid": 11752291186, "y": 30.9665274, "x": 76.4725716, "street_count": 3 }, "geometry": { "type": "Point", "coordinates": [ 76.4725716, 30.9665274 ] } },
{ "type": "Feature", "properties": { "osmid": 11752291187, "y": 30.9666844, "x": 76.4726982, "street_count": 3 }, "geometry": { "type": "Point", "coordinates": [ 76.4726982, 30.9666844 ] } },
{ "type": "Feature", "properties": { "osmid": 11752291188, "y": 30.966531, "x": 76.4728248, "street_count": 3 }, "geometry": { "type": "Point", "coordinates": [ 76.4728248, 30.966531 ] } },
{ "type": "Feature", "properties": { "osmid": 11752291189, "y": 30.9676168, "x": 76.4726771, "street_count": 1 }, "geometry": { "type": "Point", "coordinates": [ 76.4726771, 30.9676168 ] } },
{ "type": "Feature", "properties": { "osmid": 11752291190, "y": 30.9670526, "x": 76.4726899, "street_count": 3 }, "geometry": { "type": "Point", "coordinates": [ 76.4726899, 30.9670526 ] } },
{ "type": "Feature", "properties": { "osmid": 11752291191, "y": 30.967064, "x": 76.4735391, "street_count": 3 }, "geometry": { "type": "Point", "coordinates": [ 76.4735391, 30.967064 ] } },
{ "type": "Feature", "properties": { "osmid": 11752291195, "y": 30.9665725, "x": 76.4753953, "street_count": 3 }, "geometry": { "type": "Point", "coordinates": [ 76.4753953, 30.9665725 ] } },
{ "type": "Feature", "properties": { "osmid": 11752291196, "y": 30.9682764, "x": 76.4776879, "street_count": 3 }, "geometry": { "type": "Point", "coordinates": [ 76.4776879, 30.9682764 ] } },
{ "type": "Feature", "properties": { "osmid": 11752291200, "y": 30.9695221, "x": 76.4689367, "street_count": 3 }, "geometry": { "type": "Point", "coordinates": [ 76.4689367, 30.9695221 ] } },
{ "type": "Feature", "properties": { "osmid": 11752291202, "y": 30.9696954, "x": 76.468937, "street_count": 3 }, "geometry": { "type": "Point", "coordinates": [ 76.468937, 30.9696954 ] } },
{ "type": "Feature", "properties": { "osmid": 11752291204, "y": 30.9702401, "x": 76.4692216, "street_count": 3 }, "geometry": { "type": "Point", "coordinates": [ 76.4692216, 30.9702401 ] } },
{ "type": "Feature", "properties": { "osmid": 11752291205, "y": 30.9664605, "x": 76.4705904, "street_count": 3 }, "geometry": { "type": "Point", "coordinates": [ 76.4705904, 30.9664605 ] } },
{ "type": "Feature", "properties": { "osmid": 11752291210, "y": 30.9665191, "x": 76.4720239, "street_count": 3 }, "geometry": { "type": "Point", "coordinates": [ 76.4720239, 30.9665191 ] } },
{ "type": "Feature", "properties": { "osmid": 11752291211, "y": 30.9656951, "x": 76.4708861, "street_count": 3 }, "geometry": { "type": "Point", "coordinates": [ 76.4708861, 30.9656951 ] } },
{ "type": "Feature", "properties": { "osmid": 11752291214, "y": 30.9657108, "x": 76.4718284, "street_count": 3 }, "geometry": { "type": "Point", "coordinates": [ 76.4718284, 30.9657108 ] } }
]
}
