{
  "type": "FeatureCollection",
  "features": [
    {
      "type": "Feature",
      "properties": {
        "highway": "tertiary",
        "name": "IIT Ropar (Main Campus) Road",
        "osm_way_id": "589825821"
      },
      "geometry": {
        "type": "LineString",
        "coordinates": [
          [
            76.5198725,
            30.9822351
          ],
          [
            76.5171891,
            30.9807331
          ],
          [
            76.5162724,
            30.9800779
          ],
          [
            76.5157224,
            30.9797212
          ],
          [
            76.5140152,
            30.977749
          ],
          [
            76.5138831,
            30.9776005
          ],
          [
            76.5121067,
            30.9764499
          ],
          [
            76.5118705,
            30.9762318
          ],
          [
            76.5112709,
            30.9752971
          ],
          [
            76.5107803,
            30.9748454
          ],
          [
            76.5102534,
            30.9745806
          ],
          [
            76.5081458,
            30.9741288
          ],
          [
            76.5068921,
            30.9739886
          ],
          [
            76.5056021,
            30.9739418
          ],
          [
            76.50473,
            30.9740509
          ],
          [
            76.5028404,
            30.9745182
          ],
          [
            76.5017139,
            30.9746584
          ],
          [
            76.5000822,
            30.9747825
          ],
          [
            76.4990522,
            30.9747866
          ],
          [
            76.4985809,
            30.9747652
          ],
          [
            76.4961337,
            30.9746702
          ],
          [
            76.4948854,
            30.9743621
          ],
          [
            76.4934479,
            30.9736485
          ],
          [
            76.4889997,
            30.9716252
          ],
          [
            76.4869223,
            30.9708429
          ],
          [
            76.486634,
            30.9707766
          ],
          [
            76.4862982,
            30.9707456
          ],
          [
            76.4855987,
            30.9707352
          ],
          [
            76.4849174,
            30.970778
          ],
          [
            76.4843997,
            30.9709031
          ],
          [
            76.4840284,
            30.9710375
          ],
          [
            76.482549,
            30.9716758
          ],
          [
            76.4819416,
            30.971858
          ],
          [
            76.4814037,
            30.9719886
          ],
          [
            76.4809638,
            30.9720461
          ],
          [
            76.4807573,
            30.9720921
          ],
          [
            76.4803871,
            30.9721381
          ],
          [
            76.4798266,
            30.9721381
          ],
          [
            76.4788127,
            30.9720806
          ],
          [
            76.4763491,
            30.9719277
          ],
          [
            76.4751193,
            30.9719484
          ],
          [
            76.4738737,
            30.9718744
          ],
          [
            76.4724058,
            30.9717871
          ]
        ]
      }
    },
    {
      "type": "Feature",
      "properties": {
        "highway": "service",
        "osm_way_id": "1032481446"
      },
      "geometry": {
        "type": "LineString",
        "coordinates": [
          [
            76.4731211,
            30.9709765
          ],
          [
            76.4733283,
            30.9709765
          ],
          [
            76.4739123,
            30.9709765
          ],
          [
            76.4739561,
            30.9709534
          ],
          [
            76.4739999,
            30.9708957
          ],
          [
            76.4740327,
            30.9696363
          ]
        ]
      }
    },
    {
      "type": "Feature",
      "properties": {
        "highway": "service",
        "osm_way_id": "1032481447"
      },
      "geometry": {
        "type": "LineString",
        "coordinates": [
          [
            76.4731211,
            30.9709765
          ],
          [
            76.472937,
            30.9709731
          ],
          [
            76.4724055,
            30.9709631
          ],
          [
            76.4723042,
            30.9709161
          ],
          [
            76.4722892,
            30.97087
          ],
          [
            76.4723047,
            30.969613
          ]
        ]
      }
    },
    {
      "type": "Feature",
      "properties": {
        "highway": "service",
        "osm_way_id": "1032481448"
      },
      "geometry": {
        "type": "LineString",
        "coordinates": [
          [
            76.4723047,
            30.969613
          ],
          [
            76.4740327,
            30.9696363
          ]
        ]
      }
    },
    {
      "type": "Feature",
      "properties": {
        "highway": "service",
        "osm_way_id": "1032481449"
      },
      "geometry": {
        "type": "LineString",
        "coordinates": [
          [
            76.4723047,
            30.969613
          ],
          [
            76.4723083,
            30.9692689
          ],
          [
            76.4723089,
            30.9692111
          ],
          [
            76.4723089,
            30.9691136
          ],
          [
            76.4723189,
            30.9690838
          ],
          [
            76.4723521,
            30.9690467
          ],
          [
            76.4723903,
            30.9690254
          ],
          [
            76.4724351,
            30.969014
          ],
          [
            76.4725381,
            30.969014
          ],
          [
            76.4731446,
            30.9690214
          ],
          [
            76.4738955,
            30.9690306
          ],
          [
            76.4739808,
            30.9690439
          ],
          [
            76.4740312,
            30.9691005
          ],
          [
            76.474039,
            30.9691902
          ],
          [
            76.4740327,
            30.9696363
          ]
        ]
      }
    },
    {
      "type": "Feature",
      "properties": {
        "highway": "service",
        "osm_way_id": "1032481450"
      },
      "geometry": {
        "type": "LineString",
        "coordinates": [
          [
            76.4651665,
            30.9692521
          ],
          [
            76.4652801,
            30.9692533
          ],
          [
            76.4656374,
            30.9692571
          ],
          [
            76.4657936,
            30.9692588
          ],
          [
            76.4668369,
            30.9692529
          ],
          [
            76.4670203,
            30.9693342
          ],
          [
            76.4673234,
            30.969465
          ],
          [
            76.4674295,
            30.9694793
          ],
          [
            76.4675539,
            30.9695052
          ],
          [
            76.4678628,
            30.9695178
          ],
          [
            76.4683034,
            30.9695126
          ],
          [
            76.4684381,
            30.9695146
          ],
          [
            76.4685779,
            30.9695167
          ],
          [
            76.4689367,
            30.9695221
          ],
          [
            76.4693499,
            30.9695284
          ],
          [
            76.4697235,
            30.9695287
          ],
          [
            76.4723047,
            30.969613
          ]
        ]
      }
    },
    {
      "type": "Feature",
      "properties": {
        "highway": "service",
        "osm_way_id": "1032481451"
      },
      "geometry": {
        "type": "LineString",
        "coordinates": [
          [
            76.4693499,
            30.9695284
          ],
          [
            76.4693799,
            30.9682059
          ]
        ]
      }
    },
    {
      "type": "Feature",
      "properties": {
        "highway": "service",
        "osm_way_id": "1032481452"
      },
      "geometry": {
        "type": "LineString",
        "coordinates": [
          [
            76.4696371,
            30.9681769
          ],
          [
            76.470031,
            30.9681798
          ],
          [
            76.4700647,
            30.9681481
          ],
          [
            76.4700849,
            30.968099
          ],
          [
            76.470088,
            30.9679273
          ],
          [
            76.47013,
            30.9673489
          ]
        ]
      }
    },
    {
      "type": "Feature",
      "properties": {
        "highway": "service",
        "osm_way_id": "1032481453"
      },
      "geometry": {
        "type": "LineString",
        "coordinates": [
          [
            76.470088,
            30.9679273
          ],
          [
            76.4715686,
            30.9679677
          ]
        ]
      }
    },
    {
      "type": "Feature",
      "properties": {
        "highway": "service",
        "osm_way_id": "1032481454"
      },
      "geometry": {
        "type": "LineString",
        "coordinates": [
          [
            76.4740327,
            30.9696363
          ],
          [
            76.4751434,
            30.9696555
          ],
          [
            76.4768261,
            30.9696775
          ],
          [
            76.4774254,
            30.9696801
          ],
          [
            76.4778605,
            30.969682
          ],
          [
            76.4778913,
            30.9696511
          ],
          [
            76.4779016,
            30.9696025
          ],
          [
            76.4778347,
            30.969479
          ],
          [
            76.477737,
            30.969276
          ],
          [
            76.4776752,
            30.9690819
          ],
          [
            76.4776542,
            30.9689349
          ],
          [
            76.4776443,
            30.9688657
          ],
          [
            76.4776362,
            30.968625
          ],
          [
            76.4776443,
            30.968548
          ],
          [
            76.4776705,
            30.9683848
          ],
          [
            76.4776879,
            30.9682764
          ],
          [
            76.4776906,
            30.9682594
          ],
          [
            76.477769,
            30.9680976
          ],
          [
            76.4778039,
            30.9680256
          ],
          [
            76.4778707,
            30.9678667
          ],
          [
            76.4778685,
            30.9677939
          ],
          [
            76.4778094,
            30.9677317
          ],
          [
            76.4776565,
            30.9675759
          ],
          [
            76.477601,
            30.9675431
          ],
          [
            76.4775321,
            30.96753
          ],
          [
            76.4772747,
            30.9675258
          ],
          [
            76.4764803,
            30.9675248
          ]
        ]
      }
    },
    {
      "type": "Feature",
      "properties": {
        "highway": "service",
        "osm_way_id": "1032481455"
      },
      "geometry": {
        "type": "LineString",
        "coordinates": [
          [
            76.4774254,
            30.9696801
          ],
          [
            76.4774224,
            30.9699154
          ],
          [
            76.4774186,
            30.9702138
          ],
          [
            76.4774144,
            30.9705474
          ],
          [
            76.4774104,
            30.9708655
          ],
          [
            76.4774063,
            30.9711848
          ],
          [
            76.4774291,
            30.9711948
          ],
          [
            76.4784375,
            30.9712064
          ],
          [
            76.4784662,
            30.9711833
          ],
          [
            76.4784727,
            30.9708758
          ],
          [
            76.4784794,
            30.9705648
          ],
          [
            76.4784866,
            30.9702289
          ],
          [
            76.478493,
            30.9699308
          ]
        ]
      }
    },
    {
      "type": "Feature",
      "properties": {
        "highway": "service",
        "osm_way_id": "1032481456"
      },
      "geometry": {
        "type": "LineString",
        "coordinates": [
          [
            76.4774186,
            30.9702138
          ],
          [
            76.4784866,
            30.9702289
          ]
        ]
      }
    },
    {
      "type": "Feature",
      "properties": {
        "highway": "service",
        "osm_way_id": "1032481457"
      },
      "geometry": {
        "type": "LineString",
        "coordinates": [
          [
            76.4774144,
            30.9705474
          ],
          [
            76.4784794,
            30.9705648
          ]
        ]
      }
    },
    {
      "type": "Feature",
      "properties": {
        "highway": "service",
        "osm_way_id": "1032481458"
      },
      "geometry": {
        "type": "LineString",
        "coordinates": [
          [
            76.4774104,
            30.9708655
          ],
          [
            76.4784727,
            30.9708758
          ]
        ]
      }
    },
    {
      "type": "Feature",
      "properties": {
        "highway": "service",
        "osm_way_id": "1032481459"
      },
      "geometry": {
        "type": "LineString",
        "coordinates": [
          [
            76.4784866,
            30.9702289
          ],
          [
            76.4792013,
            30.9702449
          ],
          [
            76.4792459,
            30.9702028
          ],
          [
            76.4792549,
            30.9699423
          ],
          [
            76.478493,
            30.9699308
          ],
          [
            76.4774224,
            30.9699154
          ]
        ]
      }
    },
    {
      "type": "Feature",
      "properties": {
        "highway": "service",
        "osm_way_id": "1032517872"
      },
      "geometry": {
        "type": "LineString",
        "coordinates": [
          [
            76.4710521,
            30.9690798
          ],
          [
            76.4710561,
            30.9688724
          ],
          [
            76.4710676,
            30.9682812
          ],
          [
            76.4710985,
            30.9682657
          ],
          [
            76.4716253,
            30.9682657
          ],
          [
            76.4716645,
            30.9682657
          ],
          [
            76.4718102,
            30.9682669
          ],
          [
            76.4722079,
            30.9682701
          ],
          [
            76.4722388,
            30.9682922
          ],
          [
            76.4722385,
            30.9683162
          ],
          [
            76.4722367,
            30.9684457
          ],
          [
            76.4722322,
            30.9688009
          ],
          [
            76.472231,
            30.968879
          ],
          [
            76.4722027,
            30.9688945
          ],
          [
            76.4715878,
            30.9688812
          ],
          [
            76.4710561,
            30.9688724
          ]
        ]
      }
    },
    {
      "type": "Feature",
      "properties": {
        "highway": "service",
        "osm_way_id": "1032517873"
      },
      "geometry": {
        "type": "LineString",
        "coordinates": [
          [
            76.4722367,
            30.9684457
          ],
          [
            76.4731628,
            30.9684521
          ],
          [
            76.4741773,
            30.9684591
          ],
          [
            76.4741697,
            30.9688325
          ],
          [
            76.4741682,
            30.9689052
          ],
          [
            76.4743819,
            30.9689085
          ],
          [
            76.4746578,
            30.9689128
          ],
          [
            76.4752269,
            30.9689204
          ],
          [
            76.4752298,
            30.9691517
          ],
          [
            76.4756847,
            30.9691585
          ],
          [
            76.4760807,
            30.9691644
          ],
          [
            76.4760777,
            30.9690195
          ],
          [
            76.4760836,
            30.9686434
          ],
          [
            76.4760836,
            30.9685824
          ],
          [
            76.4760407,
            30.9685816
          ],
          [
            76.4759558,
            30.9685801
          ],
          [
            76.4752419,
            30.9685672
          ],
          [
            76.4752269,
            30.9689204
          ]
        ]
      }
    },
    {
      "type": "Feature",
      "properties": {
        "highway": "service",
        "osm_way_id": "1032517874"
      },
      "geometry": {
        "type": "LineString",
        "coordinates": [
          [
            76.4723083,
            30.9692689
          ],
          [
            76.4717773,
            30.9692642
          ],
          [
            76.4711475,
            30.9692587
          ],
          [
            76.4702808,
            30.969251
          ]
        ]
      }
    },
    {
      "type": "Feature",
      "properties": {
        "highway": "service",
        "osm_way_id": "1032517875"
      },
      "geometry": {
        "type": "LineString",
        "coordinates": [
          [
            76.4711475,
            30.9692587
          ],
          [
            76.471156,
            30.9690342
          ],
          [
            76.4711813,
            30.9690024
          ],
          [
            76.4712099,
            30.9689923
          ],
          [
            76.471752,
            30.969001
          ],
          [
            76.4717772,
            30.9690298
          ],
          [
            76.4717773,
            30.9692642
          ]
        ]
      }
    },
    {
      "type": "Feature",
      "properties": {
        "highway": "service",
        "osm_way_id": "1032517876"
      },
      "geometry": {
        "type": "LineString",
        "coordinates": [
          [
            76.4697235,
            30.9695287
          ],
          [
            76.4696763,
            30.9702359
          ]
        ]
      }
    },
    {
      "type": "Feature",
      "properties": {
        "highway": "service",
        "osm_way_id": "1032517877"
      },
      "geometry": {
        "type": "LineString",
        "coordinates": [
          [
            76.466681,
            30.9664748
          ],
          [
            76.4690069,
            30.9664903
          ],
          [
            76.4692566,
            30.966491
          ],
          [
            76.4704842,
            30.9664947
          ],
          [
            76.4705904,
            30.9664605
          ],
          [
            76.4707131,
            30.9664953
          ],
          [
            76.4720239,
            30.9665191
          ],
          [
            76.4721406,
            30.9665238
          ],
          [
            76.4725716,
            30.9665274
          ],
          [
            76.4728248,
            30.966531
          ],
          [
            76.473513,
            30.9665407
          ],
          [
            76.4743177,
            30.9665521
          ],
          [
            76.4753953,
            30.9665725
          ],
          [
            76.4759893,
            30.9665838
          ],
          [
            76.4766818,
            30.9665969
          ],
          [
            76.4772816,
            30.9666083
          ],
          [
            76.4773075,
            30.9666088
          ],
          [
            76.4779101,
            30.9666153
          ],
          [
            76.4786739,
            30.9666236
          ],
          [
            76.4789875,
            30.9666277
          ],
          [
            76.4795072,
            30.9666346
          ],
          [
            76.4797537,
            30.9666397
          ]
        ]
      }
    },
    {
      "type": "Feature",
      "properties": {
        "highway": "service",
        "osm_way_id": "1032517878"
      },
      "geometry": {
        "type": "LineString",
        "coordinates": [
          [
            76.4759893,
            30.9665838
          ],
          [
            76.4759967,
            30.9663265
          ],
          [
            76.4760057,
            30.9660097
          ],
          [
            76.4760151,
            30.9656809
          ],
          [
            76.4760283,
            30.9652222
          ],
          [
            76.476038,
            30.9648825
          ],
          [
            76.4760556,
            30.964266
          ],
          [
            76.4760651,
            30.9639342
          ]
        ]
      }
    },
    {
      "type": "Feature",
      "properties": {
        "highway": "service",
        "osm_way_id": "1032517879"
      },
      "geometry": {
        "type": "LineString",
        "coordinates": [
          [
            76.4762301,
            30.9639701
          ],
          [
            76.4762735,
            30.96213
          ],
          [
            76.4762891,
            30.9610507
          ],
          [
            76.4762891,
            30.9605765
          ],
          [
            76.4762713,
            30.9604621
          ],
          [
            76.4762189,
            30.9603507
          ],
          [
            76.4761569,
            30.9602543
          ],
          [
            76.4760871,
            30.9601977
          ],
          [
            76.4760231,
            30.9601595
          ],
          [
            76.4759436,
            30.9601312
          ],
          [
            76.4758427,
            30.9601063
          ],
          [
            76.4757613,
            30.9600963
          ],
          [
            76.4752998,
            30.9600896
          ],
          [
            76.474411,
            30.9600892
          ],
          [
            76.4742233,
            30.9601389
          ],
          [
            76.4740799,
            30.9601916
          ],
          [
            76.4738955,
            30.9602824
          ],
          [
            76.4737624,
            30.9603936
          ],
          [
            76.4736676,
            30.9604742
          ],
          [
            76.4728267,
            30.961435
          ],
          [
            76.4719255,
            30.9623332
          ],
          [
            76.4717185,
            30.9625143
          ],
          [
            76.471379,
            30.9627166
          ],
          [
            76.4709667,
            30.9629718
          ],
          [
            76.4704148,
            30.963313
          ],
          [
            76.4703397,
            30.9634155
          ],
          [
            76.4703226,
            30.9635062
          ],
          [
            76.4703152,
            30.9638994
          ]
        ]
      }
    },
    {
      "type": "Feature",
      "properties": {
        "highway": "service",
        "osm_way_id": "1032517881"
      },
      "geometry": {
        "type": "LineString",
        "coordinates": [
          [
            76.4707131,
            30.9664953
          ],
          [
            76.4707042,
            30.9667962
          ],
          [
            76.4706952,
            30.9670375
          ],
          [
            76.4706952,
            30.9671237
          ],
          [
            76.4707086,
            30.9671448
          ],
          [
            76.4707399,
            30.9671505
          ],
          [
            76.4712281,
            30.9671616
          ],
          [
            76.4718395,
            30.9671755
          ],
          [
            76.4720663,
            30.9671806
          ],
          [
            76.4721167,
            30.9671628
          ],
          [
            76.4721316,
            30.9671298
          ],
          [
            76.4721406,
            30.9665238
          ]
        ]
      }
    },
    {
      "type": "Feature",
      "properties": {
        "highway": "service",
        "osm_way_id": "1032517882"
      },
      "geometry": {
        "type": "LineString",
        "coordinates": [
          [
            76.4692566,
            30.966491
          ],
          [
            76.4692415,
            30.9673265
          ],
          [
            76.47013,
            30.9673489
          ],
          [
            76.4701844,
            30.9673498
          ],
          [
            76.4704488,
            30.9673569
          ],
          [
            76.4704828,
            30.9665279
          ],
          [
            76.4704842,
            30.9664947
          ]
        ]
      }
    },
    {
      "type": "Feature",
      "properties": {
        "highway": "service",
        "osm_way_id": "1032519370"
      },
      "geometry": {
        "type": "LineString",
        "coordinates": [
          [
            76.4772747,
            30.9675258
          ],
          [
            76.4772816,
            30.9666083
          ]
        ]
      }
    },
    {
      "type": "Feature",
      "properties": {
        "highway": "service",
        "osm_way_id": "1032519371"
      },
      "geometry": {
        "type": "LineString",
        "coordinates": [
          [
            76.4764604,
            30.9683793
          ],
          [
            76.4776705,
            30.9683848
          ]
        ]
      }
    },
    {
      "type": "Feature",
      "properties": {
        "highway": "service",
        "osm_way_id": "1032519372"
      },
      "geometry": {
        "type": "LineString",
        "coordinates": [
          [
            76.4764554,
            30.9686068
          ],
          [
            76.4776362,
            30.968625
          ]
        ]
      }
    },
    {
      "type": "Feature",
      "properties": {
        "highway": "service",
        "osm_way_id": "1032519373"
      },
      "geometry": {
        "type": "LineString",
        "coordinates": [
          [
            76.4764492,
            30.9689369
          ],
          [
            76.4776542,
            30.9689349
          ]
        ]
      }
    },
    {
      "type": "Feature",
      "properties": {
        "highway": "service",
        "osm_way_id": "1032519374"
      },
      "geometry": {
        "type": "LineString",
        "coordinates": [
          [
            76.4764492,
            30.9689369
          ],
          [
            76.4764554,
            30.9686068
          ],
          [
            76.4764399,
            30.9684439
          ],
          [
            76.4764604,
            30.9683793
          ],
          [
            76.476464,
            30.9682237
          ],
          [
            76.4764642,
            30.9682169
          ],
          [
            76.4764672,
            30.9680852
          ],
          [
            76.4764744,
            30.967778
          ],
          [
            76.4764803,
            30.9675248
          ]
        ]
      }
    },
    {
      "type": "Feature",
      "properties": {
        "highway": "service",
        "osm_way_id": "1032519376"
      },
      "geometry": {
        "type": "LineString",
        "coordinates": [
          [
            76.4764744,
            30.967778
          ],
          [
            76.4778685,
            30.9677939
          ]
        ]
      }
    },
    {
      "type": "Feature",
      "properties": {
        "highway": "service",
        "osm_way_id": "1032519377"
      },
      "geometry": {
        "type": "LineString",
        "coordinates": [
          [
            76.4764672,
            30.9680852
          ],
          [
            76.4774046,
            30.9680958
          ],
          [
            76.477769,
            30.9680976
          ]
        ]
      }
    },
    {
      "type": "Feature",
      "properties": {
        "highway": "service",
        "osm_way_id": "1032552693"
      },
      "geometry": {
        "type": "LineString",
        "coordinates": [
          [
            76.4718395,
            30.9671755
          ],
          [
            76.4718196,
            30.967378
          ],
          [
            76.4717813,
            30.9674405
          ],
          [
            76.4716038,
            30.9676303
          ],
          [
            76.4714803,
            30.9678399
          ],
          [
            76.4714931,
            30.9678752
          ],
          [
            76.4715686,
            30.9679677
          ]
        ]
      }
    },
    {
      "type": "Feature",
      "properties": {
        "highway": "service",
        "osm_way_id": "1032552694"
      },
      "geometry": {
        "type": "LineString",
        "coordinates": [
          [
            76.4715686,
            30.9679677
          ],
          [
            76.4716253,
            30.9682657
          ]
        ]
      }
    },
    {
      "type": "Feature",
      "properties": {
        "highway": "service",
        "osm_way_id": "1032552695"
      },
      "geometry": {
        "type": "LineString",
        "coordinates": [
          [
            76.4718196,
            30.967378
          ],
          [
            76.4721014,
            30.9673901
          ],
          [
            76.4724601,
            30.96762
          ],
          [
            76.4721475,
            30.9679493
          ],
          [
            76.4718415,
            30.9681332
          ],
          [
            76.4718281,
            30.9681638
          ],
          [
            76.4718102,
            30.9682669
          ]
        ]
      }
    },
    {
      "type": "Feature",
      "properties": {
        "highway": "service",
        "osm_way_id": "1032552701"
      },
      "geometry": {
        "type": "LineString",
        "coordinates": [
          [
            76.4724058,
            30.9717871
          ],
          [
            76.4724599,
            30.9716589
          ],
          [
            76.4725192,
            30.9715853
          ],
          [
            76.4725933,
            30.9715217
          ],
          [
            76.4726792,
            30.9714684
          ],
          [
            76.4728155,
            30.9714023
          ],
          [
            76.4728926,
            30.971354
          ],
          [
            76.4729282,
            30.9712879
          ],
          [
            76.4729324,
            30.9711365
          ],
          [
            76.472937,
            30.9709731
          ]
        ]
      }
    },
    {
      "type": "Feature",
      "properties": {
        "highway": "service",
        "osm_way_id": "1032552702"
      },
      "geometry": {
        "type": "LineString",
        "coordinates": [
          [
            76.4738737,
            30.9718744
          ],
          [
            76.4737936,
            30.9716589
          ],
          [
            76.4737165,
            30.97157
          ],
          [
            76.4735802,
            30.9714709
          ],
          [
            76.4734202,
            30.9713947
          ],
          [
            76.4733673,
            30.9713591
          ],
          [
            76.4733372,
            30.9713388
          ],
          [
            76.4733194,
            30.9713006
          ],
          [
            76.4733216,
            30.9712209
          ],
          [
            76.4733283,
            30.9709765
          ]
        ]
      }
    },
    {
      "type": "Feature",
      "properties": {
        "highway": "service",
        "osm_way_id": "1032552703"
      },
      "geometry": {
        "type": "LineString",
        "coordinates": [
          [
            76.4728926,
            30.971354
          ],
          [
            76.4733673,
            30.9713591
          ]
        ]
      }
    },
    {
      "type": "Feature",
      "properties": {
        "highway": "path",
        "osm_way_id": "1032552704"
      },
      "geometry": {
        "type": "LineString",
        "coordinates": [
          [
            76.4722121,
            30.9696494
          ],
          [
            76.4721986,
            30.9696898
          ],
          [
            76.4722239,
            30.969723
          ],
          [
            76.4722222,
            30.9699078
          ],
          [
            76.4722138,
            30.9702281
          ],
          [
            76.472207,
            30.9705349
          ],
          [
            76.4721986,
            30.9708705
          ],
          [
            76.4722138,
            30.9709124
          ],
          [
            76.4722508,
            30.9709586
          ],
          [
            76.4722845,
            30.970986
          ],
          [
            76.4723265,
            30.9710091
          ],
          [
            76.4723737,
            30.9710206
          ],
          [
            76.4725336,
            30.9710264
          ],
          [
            76.4726464,
            30.9710264
          ],
          [
            76.4728114,
            30.9710264
          ],
          [
            76.4728568,
            30.9710452
          ],
          [
            76.4728669,
            30.9710596
          ],
          [
            76.4728669,
            30.9711159
          ],
          [
            76.4728669,
            30.9711318
          ],
          [
            76.4729006,
            30.9711347
          ],
          [
            76.4729324,
            30.9711365
          ]
        ]
      }
    },
    {
      "type": "Feature",
      "properties": {
        "highway": "path",
        "osm_way_id": "1032552705"
      },
      "geometry": {
        "type": "LineString",
        "coordinates": [
          [
            76.4733216,
            30.9712209
          ],
          [
            76.4733926,
            30.9712209
          ],
          [
            76.4733926,
            30.9712741
          ],
          [
            76.4734072,
            30.9713041
          ],
          [
            76.4734452,
            30.9713267
          ],
          [
            76.4736162,
            30.9714081
          ],
          [
            76.4737156,
            30.971474
          ],
          [
            76.4738179,
            30.9715742
          ],
          [
            76.473888,
            30.9716782
          ],
          [
            76.4739407,
            30.9717785
          ]
        ]
      }
    },
    {
      "type": "Feature",
      "properties": {
        "highway": "path",
        "osm_way_id": "1032618603"
      },
      "geometry": {
        "type": "LineString",
        "coordinates": [
          [
            76.4723827,
            30.9696797
          ],
          [
            76.4723671,
            30.9701842
          ],
          [
            76.4723654,
            30.9704116
          ],
          [
            76.4723619,
            30.9706357
          ],
          [
            76.4723619,
            30.9708672
          ],
          [
            76.4723671,
            30.9708831
          ],
          [
            76.472395,
            30.9708929
          ],
          [
            76.4727313,
            30.9708944
          ],
          [
            76.4733669,
            30.9709054
          ],
          [
            76.4737204,
            30.9709088
          ],
          [
            76.4738704,
            30.970911
          ],
          [
            76.4739019,
            30.9709054
          ],
          [
            76.4739145,
            30.9708946
          ],
          [
            76.4739198,
            30.9706653
          ],
          [
            76.4739273,
            30.9702959
          ],
          [
            76.4739373,
            30.9699559
          ],
          [
            76.4739373,
            30.9696636
          ]
        ]
      }
    },
    {
      "type": "Feature",
      "properties": {
        "highway": "path",
        "osm_way_id": "1032618604"
      },
      "geometry": {
        "type": "LineString",
        "coordinates": [
          [
            76.4743819,
            30.9689085
          ],
          [
            76.4743835,
            30.9690567
          ],
          [
            76.4744043,
            30.9692348
          ],
          [
            76.4743887,
            30.9692511
          ],
          [
            76.4740858,
            30.9692526
          ]
        ]
      }
    },
    {
      "type": "Feature",
      "properties": {
        "highway": "service",
        "osm_way_id": "1032618607"
      },
      "geometry": {
        "type": "LineString",
        "coordinates": [
          [
            76.4797537,
            30.9666397
          ],
          [
            76.4797408,
            30.966532
          ],
          [
            76.4797057,
            30.9663183
          ],
          [
            76.479639,
            30.9660746
          ],
          [
            76.4794355,
            30.9654034
          ],
          [
            76.4793934,
            30.9653222
          ],
          [
            76.4791161,
            30.9651325
          ],
          [
            76.4785989,
            30.9648896
          ],
          [
            76.4785049,
            30.9648458
          ],
          [
            76.4779543,
            30.964589
          ],
          [
            76.4776262,
            30.9644361
          ],
          [
            76.4767945,
            30.9641474
          ],
          [
            76.4767305,
            30.9641273
          ],
          [
            76.4762301,
            30.9639701
          ]
        ]
      }
    },
    {
      "type": "Feature",
      "properties": {
        "highway": "path",
        "osm_way_id": "1032618608"
      },
      "geometry": {
        "type": "LineString",
        "coordinates": [
          [
            76.4746053,
            30.9636385
          ],
          [
            76.4752254,
            30.9637192
          ],
          [
            76.4755607,
            30.9637763
          ],
          [
            76.4760544,
            30.9638768
          ],
          [
            76.4761738,
            30.9639063
          ]
        ]
      }
    },
    {
      "type": "Feature",
      "properties": {
        "highway": "path",
        "osm_way_id": "1032618609"
      },
      "geometry": {
        "type": "LineString",
        "coordinates": [
          [
            76.4752552,
            30.9637645
          ],
          [
            76.4752805,
            30.9636109
          ]
        ]
      }
    },
    {
      "type": "Feature",
      "properties": {
        "highway": "path",
        "osm_way_id": "1032618610"
      },
      "geometry": {
        "type": "LineString",
        "coordinates": [
          [
            76.4754481,
            30.9619417
          ],
          [
            76.4754681,
            30.9614784
          ]
        ]
      }
    },
    {
      "type": "Feature",
      "properties": {
        "highway": "path",
        "layer": "1",
        "osm_way_id": "1032618612"
      },
      "geometry": {
        "type": "LineString",
        "coordinates": [
          [
            76.4731446,
            30.9690214
          ],
          [
            76.4731512,
            30.9688158
          ],
          [
            76.4731628,
            30.9684521
          ]
        ]
      }
    },
    {
      "type": "Feature",
      "properties": {
        "highway": "path",
        "osm_way_id": "1032618613"
      },
      "geometry": {
        "type": "LineString",
        "coordinates": [
          [
            76.4722322,
            30.9688009
          ],
          [
            76.4731512,
            30.9688158
          ],
          [
            76.4741697,
            30.9688325
          ]
        ]
      }
    },
    {
      "type": "Feature",
      "properties": {
        "highway": "service",
        "osm_way_id": "1032886633"
      },
      "geometry": {
        "type": "LineString",
        "coordinates": [
          [
            76.4674295,
            30.9694793
          ],
          [
            76.4675144,
            30.9693442
          ],
          [
            76.4676646,
            30.9690375
          ],
          [
            76.4676917,
            30.9689595
          ],
          [
            76.4677151,
            30.968859
          ],
          [
            76.4677157,
            30.9688281
          ],
          [
            76.4677427,
            30.9686245
          ],
          [
            76.4677367,
            30.9683823
          ],
          [
            76.4677097,
            30.9682148
          ],
          [
            76.4676943,
            30.9681733
          ],
          [
            76.4676736,
            30.9681177
          ],
          [
            76.4675504,
            30.9678806
          ],
          [
            76.4673813,
            30.967604
          ],
          [
            76.4669615,
            30.9669234
          ],
          [
            76.466681,
            30.9664748
          ]
        ]
      }
    },
    {
      "type": "Feature",
      "properties": {
        "area": "yes",
        "highway": "raceway",
        "sport": "motor",
        "osm_way_id": "1032886636"
      },
      "geometry": {
        "type": "LineString",
        "coordinates": [
          [
            76.4734115,
            30.9613435
          ],
          [
            76.4734221,
            30.961838
          ],
          [
            76.4742051,
            30.9618471
          ],
          [
            76.4743268,
            30.9619061
          ],
          [
            76.4746971,
            30.9622146
          ],
          [
            76.474676,
            30.9631809
          ],
          [
            76.4745702,
            30.9632625
          ],
          [
            76.4741469,
            30.9632308
          ],
          [
            76.4741363,
            30.9631582
          ],
          [
            76.473967,
            30.9631899
          ],
          [
            76.4738295,
            30.9632081
          ],
          [
            76.4735279,
            30.963199
          ],
          [
            76.4730042,
            30.9632625
          ],
          [
            76.4728137,
            30.9631854
          ],
          [
            76.4725968,
            30.9626816
          ],
          [
            76.4721259,
            30.9626953
          ],
          [
            76.4721365,
            30.9623732
          ],
          [
            76.472327,
            30.9623686
          ],
          [
            76.472921,
            30.9617437
          ],
          [
            76.4731198,
            30.9615024
          ],
          [
            76.4731047,
            30.9613731
          ],
          [
            76.4732165,
            30.9613556
          ],
          [
            76.4734115,
            30.9613435
          ]
        ]
      }
    },
    {
      "type": "Feature",
      "properties": {
        "highway": "service",
        "osm_way_id": "1177559083"
      },
      "geometry": {
        "type": "LineString",
        "coordinates": [
          [
            76.4786813,
            30.9682905
          ],
          [
            76.4786625,
            30.9678627
          ],
          [
            76.4786531,
            30.9672107
          ],
          [
            76.4786625,
            30.9667956
          ],
          [
            76.4786739,
            30.9666236
          ]
        ]
      }
    },
    {
      "type": "Feature",
      "properties": {
        "highway": "service",
        "osm_way_id": "1190346885"
      },
      "geometry": {
        "type": "LineString",
        "coordinates": [
          [
            76.4652801,
            30.9692533
          ],
          [
            76.4652534,
            30.9690805
          ],
          [
            76.4650953,
            30.9680586
          ],
          [
            76.4655458,
            30.9680626
          ],
          [
            76.4663671,
            30.96807
          ],
          [
            76.46687,
            30.9680745
          ],
          [
            76.4669994,
            30.9680956
          ],
          [
            76.4671966,
            30.9681326
          ],
          [
            76.4676428,
            30.9681691
          ],
          [
            76.4676943,
            30.9681733
          ]
        ]
      }
    },
    {
      "type": "Feature",
      "properties": {
        "highway": "service",
        "osm_way_id": "1190346886"
      },
      "geometry": {
        "type": "LineString",
        "coordinates": [
          [
            76.4652534,
            30.9690805
          ],
          [
            76.4656349,
            30.9690863
          ],
          [
            76.4661599,
            30.9690933
          ],
          [
            76.4665305,
            30.9691
          ],
          [
            76.466756,
            30.9691034
          ],
          [
            76.4668391,
            30.969177
          ],
          [
            76.4668369,
            30.9692529
          ]
        ]
      }
    },
    {
      "type": "Feature",
      "properties": {
        "highway": "service",
        "osm_way_id": "1190346887"
      },
      "geometry": {
        "type": "LineString",
        "coordinates": [
          [
            76.4656374,
            30.9692571
          ],
          [
            76.4656349,
            30.9690863
          ]
        ]
      }
    },
    {
      "type": "Feature",
      "properties": {
        "highway": "service",
        "osm_way_id": "1190346888"
      },
      "geometry": {
        "type": "LineString",
        "coordinates": [
          [
            76.4661599,
            30.9690933
          ],
          [
            76.4663215,
            30.9683169
          ],
          [
            76.4663671,
            30.96807
          ]
        ]
      }
    },
    {
      "type": "Feature",
      "properties": {
        "highway": "service",
        "osm_way_id": "1190346889"
      },
      "geometry": {
        "type": "LineString",
        "coordinates": [
          [
            76.4663215,
            30.9683169
          ],
          [
            76.4664261,
            30.9684732
          ],
          [
            76.4665305,
            30.9691
          ]
        ]
      }
    },
    {
      "type": "Feature",
      "properties": {
        "highway": "service",
        "osm_way_id": "1191758346"
      },
      "geometry": {
        "type": "LineString",
        "coordinates": [
          [
            76.4668391,
            30.969177
          ],
          [
            76.4671141,
            30.9691898
          ],
          [
            76.4674185,
            30.969208
          ],
          [
            76.4674937,
            30.9688537
          ],
          [
            76.4676428,
            30.9681691
          ]
        ]
      }
    },
    {
      "type": "Feature",
      "properties": {
        "highway": "service",
        "osm_way_id": "1191758347"
      },
      "geometry": {
        "type": "LineString",
        "coordinates": [
          [
            76.4674937,
            30.9688537
          ],
          [
            76.4677151,
            30.968859
          ]
        ]
      }
    },
    {
      "type": "Feature",
      "properties": {
        "highway": "service",
        "osm_way_id": "1191964192"
      },
      "geometry": {
        "type": "LineString",
        "coordinates": [
          [
            76.4693799,
            30.9682059
          ],
          [
            76.4691329,
            30.968201
          ],
          [
            76.4680124,
            30.9681783
          ],
          [
            76.467952,
            30.9681981
          ],
          [
            76.4679281,
            30.968261
          ],
          [
            76.4680816,
            30.9691647
          ],
          [
            76.4681136,
            30.9691976
          ],
          [
            76.4681501,
            30.9692198
          ],
          [
            76.4683939,
            30.9692112
          ],
          [
            76.4684252,
            30.9692581
          ],
          [
            76.4684381,
            30.9695146
          ]
        ]
      }
    },
    {
      "type": "Feature",
      "properties": {
        "highway": "service",
        "osm_way_id": "1191964193"
      },
      "geometry": {
        "type": "LineString",
        "coordinates": [
          [
            76.4685779,
            30.9695167
          ],
          [
            76.4685955,
            30.9692308
          ],
          [
            76.4686236,
            30.9692059
          ],
          [
            76.4688633,
            30.9692132
          ],
          [
            76.4689119,
            30.9692011
          ],
          [
            76.4689448,
            30.9691728
          ],
          [
            76.4691329,
            30.968201
          ]
        ]
      }
    },
    {
      "type": "Feature",
      "properties": {
        "highway": "service",
        "osm_way_id": "1265064884"
      },
      "geometry": {
        "type": "LineString",
        "coordinates": [
          [
            76.4653462,
            30.9664338
          ],
          [
            76.4655712,
            30.9664407
          ],
          [
            76.466681,
            30.9664748
          ]
        ]
      }
    },
    {
      "type": "Feature",
      "properties": {
        "highway": "service",
        "osm_way_id": "1265064885"
      },
      "geometry": {
        "type": "LineString",
        "coordinates": [
          [
            76.4655712,
            30.9664407
          ],
          [
            76.4655458,
            30.9680626
          ]
        ]
      }
    },
    {
      "type": "Feature",
      "properties": {
        "highway": "service",
        "osm_way_id": "1265064886"
      },
      "geometry": {
        "type": "LineString",
        "coordinates": [
          [
            76.466681,
            30.9664748
          ],
          [
            76.4664116,
            30.9660348
          ],
          [
            76.4663869,
            30.9659358
          ],
          [
            76.4663952,
            30.9658545
          ],
          [
            76.4664158,
            30.9657944
          ],
          [
            76.4664694,
            30.9657273
          ],
          [
            76.4664941,
            30.9656955
          ],
          [
            76.46656,
            30.9656601
          ],
          [
            76.4666549,
            30.9656425
          ],
          [
            76.4673598,
            30.9656531
          ],
          [
            76.4674669,
            30.9656319
          ],
          [
            76.4675494,
            30.9655859
          ],
          [
            76.4676153,
            30.9655081
          ],
          [
            76.4676236,
            30.9654162
          ],
          [
            76.4676277,
            30.9651122
          ],
          [
            76.4676442,
            30.9650309
          ],
          [
            76.4676937,
            30.9649497
          ],
          [
            76.4681636,
            30.9646669
          ],
          [
            76.4686954,
            30.9644124
          ],
          [
            76.469223,
            30.9641968
          ],
          [
            76.4697589,
            30.9640377
          ],
          [
            76.4703152,
            30.9638994
          ],
          [
            76.470773,
            30.963815
          ],
          [
            76.4714408,
            30.9637196
          ],
          [
            76.4722611,
            30.9636418
          ],
          [
            76.4730154,
            30.9636312
          ],
          [
            76.4739512,
            30.9636524
          ],
          [
            76.4745942,
            30.9637019
          ],
          [
            76.4755176,
            30.963815
          ],
          [
            76.4760651,
            30.9639342
          ],
          [
            76.4762301,
            30.9639701
          ]
        ]
      }
    },
    {
      "type": "Feature",
      "properties": {
        "highway": "service",
        "osm_way_id": "1265064887"
      },
      "geometry": {
        "type": "LineString",
        "coordinates": [
          [
            76.4760283,
            30.9652222
          ],
          [
            76.4767047,
            30.9652328
          ],
          [
            76.4779494,
            30.9652522
          ],
          [
            76.4784939,
            30.9652607
          ],
          [
            76.4785049,
            30.9648458
          ]
        ]
      }
    },
    {
      "type": "Feature",
      "properties": {
        "highway": "service",
        "osm_way_id": "1265064888"
      },
      "geometry": {
        "type": "LineString",
        "coordinates": [
          [
            76.4767305,
            30.9641273
          ],
          [
            76.4767271,
            30.9642743
          ],
          [
            76.4767124,
            30.9649038
          ],
          [
            76.4767047,
            30.9652328
          ]
        ]
      }
    },
    {
      "type": "Feature",
      "properties": {
        "highway": "service",
        "osm_way_id": "1265064889"
      },
      "geometry": {
        "type": "LineString",
        "coordinates": [
          [
            76.4779543,
            30.964589
          ],
          [
            76.4779494,
            30.9652522
          ]
        ]
      }
    },
    {
      "type": "Feature",
      "properties": {
        "highway": "service",
        "osm_way_id": "1265064890"
      },
      "geometry": {
        "type": "LineString",
        "coordinates": [
          [
            76.476038,
            30.9648825
          ],
          [
            76.4767124,
            30.9649038
          ]
        ]
      }
    },
    {
      "type": "Feature",
      "properties": {
        "highway": "service",
        "osm_way_id": "1265064891"
      },
      "geometry": {
        "type": "LineString",
        "coordinates": [
          [
            76.4760556,
            30.964266
          ],
          [
            76.4767271,
            30.9642743
          ]
        ]
      }
    },
    {
      "type": "Feature",
      "properties": {
        "highway": "service",
        "osm_way_id": "1265064892"
      },
      "geometry": {
        "type": "LineString",
        "coordinates": [
          [
            76.4794355,
            30.9654034
          ],
          [
            76.4807675,
            30.965424
          ],
          [
            76.4811419,
            30.9652742
          ],
          [
            76.4812467,
            30.9652871
          ]
        ]
      }
    },
    {
      "type": "Feature",
      "properties": {
        "highway": "service",
        "osm_way_id": "1265064893"
      },
      "geometry": {
        "type": "LineString",
        "coordinates": [
          [
            76.4760151,
            30.9656809
          ],
          [
            76.476709,
            30.9656975
          ],
          [
            76.4779357,
            30.9657267
          ]
        ]
      }
    },
    {
      "type": "Feature",
      "properties": {
        "highway": "service",
        "osm_way_id": "1265064894"
      },
      "geometry": {
        "type": "LineString",
        "coordinates": [
          [
            76.4760057,
            30.9660097
          ],
          [
            76.4766996,
            30.9660212
          ],
          [
            76.4779267,
            30.9660398
          ]
        ]
      }
    },
    {
      "type": "Feature",
      "properties": {
        "highway": "service",
        "osm_way_id": "1265064895"
      },
      "geometry": {
        "type": "LineString",
        "coordinates": [
          [
            76.4759967,
            30.9663265
          ],
          [
            76.4766899,
            30.9663357
          ],
          [
            76.4779177,
            30.9663527
          ],
          [
            76.4784561,
            30.9663605
          ],
          [
            76.4789941,
            30.9663681
          ]
        ]
      }
    },
    {
      "type": "Feature",
      "properties": {
        "highway": "service",
        "osm_way_id": "1265064896"
      },
      "geometry": {
        "type": "LineString",
        "coordinates": [
          [
            76.476709,
            30.9656975
          ],
          [
            76.4766996,
            30.9660212
          ],
          [
            76.4766899,
            30.9663357
          ],
          [
            76.4766818,
            30.9665969
          ]
        ]
      }
    },
    {
      "type": "Feature",
      "properties": {
        "highway": "service",
        "osm_way_id": "1265064897"
      },
      "geometry": {
        "type": "LineString",
        "coordinates": [
          [
            76.4779101,
            30.9666153
          ],
          [
            76.4779177,
            30.9663527
          ],
          [
            76.4779267,
            30.9660398
          ],
          [
            76.477929,
            30.9659594
          ],
          [
            76.4779357,
            30.9657267
          ],
          [
            76.4779494,
            30.9652522
          ]
        ]
      }
    },
    {
      "type": "Feature",
      "properties": {
        "highway": "service",
        "osm_way_id": "1265064898"
      },
      "geometry": {
        "type": "LineString",
        "coordinates": [
          [
            76.477929,
            30.9659594
          ],
          [
            76.4781327,
            30.9659624
          ],
          [
            76.4782801,
            30.9659644
          ],
          [
            76.4784557,
            30.9659711
          ],
          [
            76.4786829,
            30.9659694
          ],
          [
            76.4788229,
            30.9659778
          ],
          [
            76.4790038,
            30.9659834
          ],
          [
            76.4789941,
            30.9663681
          ],
          [
            76.4789875,
            30.9666277
          ]
        ]
      }
    },
    {
      "type": "Feature",
      "properties": {
        "highway": "service",
        "osm_way_id": "1265064899"
      },
      "geometry": {
        "type": "LineString",
        "coordinates": [
          [
            76.4784557,
            30.9659711
          ],
          [
            76.4784561,
            30.9663605
          ]
        ]
      }
    },
    {
      "type": "Feature",
      "properties": {
        "highway": "service",
        "osm_way_id": "1265064900"
      },
      "geometry": {
        "type": "LineString",
        "coordinates": [
          [
            76.473513,
            30.9665407
          ],
          [
            76.4735391,
            30.967064
          ],
          [
            76.4735889,
            30.9680634
          ],
          [
            76.4727622,
            30.9680465
          ]
        ]
      }
    },
    {
      "type": "Feature",
      "properties": {
        "highway": "service",
        "osm_way_id": "1265064901"
      },
      "geometry": {
        "type": "LineString",
        "coordinates": [
          [
            76.4725716,
            30.9665274
          ],
          [
            76.4726982,
            30.9666844
          ],
          [
            76.4728248,
            30.966531
          ]
        ]
      }
    },
    {
      "type": "Feature",
      "properties": {
        "highway": "service",
        "osm_way_id": "1265064902"
      },
      "geometry": {
        "type": "LineString",
        "coordinates": [
          [
            76.4726982,
            30.9666844
          ],
          [
            76.4726899,
            30.9670526
          ],
          [
            76.4726771,
            30.9676168
          ]
        ]
      }
    },
    {
      "type": "Feature",
      "properties": {
        "highway": "service",
        "osm_way_id": "1265064903"
      },
      "geometry": {
        "type": "LineString",
        "coordinates": [
          [
            76.4726899,
            30.9670526
          ],
          [
            76.4735391,
            30.967064
          ]
        ]
      }
    },
    {
      "type": "Feature",
      "properties": {
        "highway": "service",
        "osm_way_id": "1265064904"
      },
      "geometry": {
        "type": "LineString",
        "coordinates": [
          [
            76.4735889,
            30.9680634
          ],
          [
            76.4753235,
            30.968093
          ],
          [
            76.4753583,
            30.9680751
          ],
          [
            76.4753769,
            30.9680372
          ],
          [
            76.4753953,
            30.9665725
          ]
        ]
      }
    },
    {
      "type": "Feature",
      "properties": {
        "highway": "service",
        "osm_way_id": "1265064905"
      },
      "geometry": {
        "type": "LineString",
        "coordinates": [
          [
            76.4776879,
            30.9682764
          ],
          [
            76.4786813,
            30.9682905
          ],
          [
            76.4805907,
            30.9683548
          ],
          [
            76.4810389,
            30.9684769
          ]
        ]
      }
    },
    {
      "type": "Feature",
      "properties": {
        "highway": "service",
        "osm_way_id": "1265064906"
      },
      "geometry": {
        "type": "LineString",
        "coordinates": [
          [
            76.4812467,
            30.9652871
          ],
          [
            76.4811955,
            30.9657971
          ],
          [
            76.4810389,
            30.9684769
          ]
        ]
      }
    },
    {
      "type": "Feature",
      "properties": {
        "highway": "service",
        "osm_way_id": "1265064907"
      },
      "geometry": {
        "type": "LineString",
        "coordinates": [
          [
            76.4689367,
            30.9695221
          ],
          [
            76.468937,
            30.9696954
          ],
          [
            76.4689382,
            30.9702427
          ],
          [
            76.4692216,
            30.9702401
          ],
          [
            76.4696763,
            30.9702359
          ]
        ]
      }
    },
    {
      "type": "Feature",
      "properties": {
        "highway": "service",
        "osm_way_id": "1265064908"
      },
      "geometry": {
        "type": "LineString",
        "coordinates": [
          [
            76.4692216,
            30.9702401
          ],
          [
            76.4692375,
            30.9697076
          ],
          [
            76.468937,
            30.9696954
          ]
        ]
      }
    },
    {
      "type": "Feature",
      "properties": {
        "highway": "service",
        "osm_way_id": "1265064909"
      },
      "geometry": {
        "type": "LineString",
        "coordinates": [
          [
            76.4705904,
            30.9664605
          ],
          [
            76.4705938,
            30.9657735
          ],
          [
            76.4706725,
            30.9656915
          ],
          [
            76.4708861,
            30.9656951
          ],
          [
            76.4718284,
            30.9657108
          ],
          [
            76.4719687,
            30.9657132
          ],
          [
            76.4720446,
            30.965759
          ],
          [
            76.4720239,
            30.9665191
          ]
        ]
      }
    },
    {
      "type": "Feature",
      "properties": {
        "highway": "service",
        "osm_way_id": "1265064910"
      },
      "geometry": {
        "type": "LineString",
        "coordinates": [
          [
            76.4708861,
            30.9656951
          ],
          [
            76.4709412,
            30.9659095
          ],
          [
            76.4717331,
            30.9659312
          ],
          [
            76.4718284,
            30.9657108
          ]
        ]
      }
    },
    {
      "type": "Feature",
      "properties": {
        "highway": "service",
        "osm_way_id": "1265064918"
      },
      "geometry": {
        "type": "LineString",
        "coordinates": [
          [
            76.4867813,
            30.9653168
          ],
          [
            76.4866975,
            30.9653155
          ],
          [
            76.4861776,
            30.9653074
          ],
          [
            76.4860971,
            30.9653061
          ],
          [
            76.485307,
            30.9653028
          ],
          [
            76.484584,
            30.965191
          ],
          [
            76.4830191,
            30.9652173
          ],
          [
            76.481389,
            30.965265
          ],
          [
            76.4812467,
            30.9652871
          ]
        ]
      }
    },
    {
      "type": "Feature",
      "properties": {
        "highway": "tertiary",
        "osm_way_id": "1426169918"
      },
      "geometry": {
        "type": "LineString",
        "coordinates": [
          [
            76.4724058,
            30.9717871
          ],
          [
            76.4720803,
            30.9717678
          ],
          [
            76.4715924,
            30.9717877
          ],
          [
            76.4701234,
            30.9720682
          ],
          [
            76.4685431,
            30.97251
          ],
          [
            76.4678121,
            30.9726293
          ],
          [
            76.4664059,
            30.9726771
          ],
          [
            76.465473,
            30.9727248
          ],
          [
            76.4641711,
            30.9726234
          ],
          [
            76.4634611,
            30.9724144
          ],
          [
            76.4623054,
            30.9721697
          ],
          [
            76.4607251,
            30.9717877
          ],
          [
            76.4603422,
            30.9717101
          ],
          [
            76.4595258,
            30.9717086
          ],
          [
            76.4574747,
            30.9717017
          ]
        ]
      }
    },
    {
      "type": "Feature",
      "properties": {
        "highway": "unclassified",
        "osm_way_id": "1463492266"
      },
      "geometry": {
        "type": "LineString",
        "coordinates": [
          [
            76.4786614,
            30.953388
          ],
          [
            76.4780593,
            30.9542469
          ],
          [
            76.4772712,
            30.9553999
          ],
          [
            76.4765153,
            30.9565501
          ],
          [
            76.476218,
            30.9570087
          ],
          [
            76.4761165,
            30.9571652
          ],
          [
            76.4756179,
            30.9578272
          ],
          [
            76.4752963,
            30.9582437
          ],
          [
            76.4746272,
            30.9590822
          ],
          [
            76.4736945,
            30.9601055
          ],
          [
            76.47299,
            30.9608723
          ],
          [
            76.4723403,
            30.961526
          ],
          [
            76.471385,
            30.9623507
          ],
          [
            76.4711213,
            30.9625438
          ],
          [
            76.4706323,
            30.9628362
          ],
          [
            76.4697124,
            30.9633133
          ],
          [
            76.4687732,
            30.9638236
          ],
          [
            76.4681267,
            30.9641656
          ],
          [
            76.4671489,
            30.9646014
          ],
          [
            76.4657947,
            30.965164
          ],
          [
            76.4648845,
            30.9655915
          ],
          [
            76.4643344,
            30.9658921
          ],
          [
            76.4631025,
            30.9664189
          ],
          [
            76.4629063,
            30.9665817
          ],
          [
            76.462723,
            30.9667499
          ],
          [
            76.4626683,
            30.9669705
          ],
          [
            76.4626811,
            30.9672105
          ],
          [
            76.4627326,
            30.9673456
          ],
          [
            76.4627776,
            30.9674753
          ],
          [
            76.4627519,
            30.9675635
          ],
          [
            76.4626876,
            30.9676132
          ],
          [
            76.462649,
            30.9677207
          ],
          [
            76.4626393,
            30.9679083
          ],
          [
            76.4625911,
            30.9680158
          ],
          [
            76.4624303,
            30.9682668
          ],
          [
            76.4621794,
            30.9685647
          ],
          [
            76.461758,
            30.9691411
          ],
          [
            76.4616872,
            30.9692983
          ],
          [
            76.4615843,
            30.9693893
          ],
          [
            76.4614524,
            30.9694803
          ],
          [
            76.4613045,
            30.9695382
          ],
          [
            76.4609764,
            30.9695631
          ],
          [
            76.4601594,
            30.9695934
          ],
          [
            76.4599729,
            30.9696513
          ],
          [
            76.4597959,
            30.9698085
          ],
          [
            76.4596351,
            30.9700126
          ],
          [
            76.4595451,
            30.9702801
          ],
          [
            76.4594872,
            30.9705532
          ],
          [
            76.459455,
            30.9708455
          ],
          [
            76.4595161,
            30.9715433
          ],
          [
            76.4595258,
            30.9717086
          ]
        ]
      }
    },
    {
      "type": "Feature",
      "properties": {
        "highway": "track",
        "osm_way_id": "1463494249"
      },
      "geometry": {
        "type": "LineString",
        "coordinates": [
          [
            76.4725167,
            30.9578128
          ],
          [
            76.4725418,
            30.9579334
          ],
          [
            76.4725263,
            30.9581023
          ],
          [
            76.4724414,
            30.9583507
          ],
          [
            76.472368,
            30.9586356
          ],
          [
            76.4722058,
            30.9590065
          ],
          [
            76.4719393,
            30.9592682
          ],
          [
            76.4718272,
            30.9593675
          ],
          [
            76.4714951,
            30.959659
          ],
          [
            76.4712786,
            30.9598726
          ]
        ]
      }
    },
    {
      "type": "Feature",
      "properties": {
        "highway": "unclassified",
        "osm_way_id": "1463494255"
      },
      "geometry": {
        "type": "LineString",
        "coordinates": [
          [
            76.4703401,
            30.9521285
          ],
          [
            76.4703554,
            30.9522169
          ],
          [
            76.4703876,
            30.9526804
          ],
          [
            76.4696864,
            30.9537782
          ],
          [
            76.4695513,
            30.953963
          ],
          [
            76.4690752,
            30.9547299
          ],
          [
            76.4685027,
            30.9556181
          ],
          [
            76.4683097,
            30.9558994
          ],
          [
            76.4677307,
            30.9567821
          ],
          [
            76.4673287,
            30.9574082
          ],
          [
            76.4670231,
            30.9578744
          ],
          [
            76.4665052,
            30.9586853
          ],
          [
            76.4662576,
            30.9590467
          ],
          [
            76.4658587,
            30.9595983
          ],
          [
            76.4654245,
            30.9600231
          ],
          [
            76.464971,
            30.9603292
          ],
          [
            76.4644113,
            30.9606713
          ],
          [
            76.4637519,
            30.9609912
          ],
          [
            76.4633659,
            30.9611788
          ],
          [
            76.4618124,
            30.9618352
          ],
          [
            76.4596251,
            30.9628144
          ],
          [
            76.4577563,
            30.9636225
          ],
          [
            76.4564118,
            30.9642155
          ],
          [
            76.4546653,
            30.9649492
          ],
          [
            76.4528446,
            30.9657542
          ]
        ]
      }
    }
  ]
}